NORAD_CAT_ID,OBJECT_NAME,OBJECT_TYPE,EPOCH,MEAN_MOTION,ECCENTRICITY,INCLINATION,RA_OF_ASC_NODE,ARG_OF_PERICENTER,MEAN_ANOMALY,BSTAR,MEAN_MOTION_DOT,MEAN_MOTION_DDOT,TLE_LINE0,TLE_LINE1,TLE_LINE2,SEMIMAJOR_AXIS,PERIOD,APOGEE,PERIGEE,DECAYED
53552.0,STARLINK-4495,PAYLOAD,2024-08-10 04:17:49,15.08869049,0.0001291,53.2159,132.1782,105.0838,255.0297,0.0029187,0.00046507,0.0,0 STARLINK-4495,1 53552U 22101AB  24223.17903976  .00046507  00000-0  29187-2 0  9992,2 53552  53.2159 132.1782 0001291 105.0838 255.0297 15.08869049109278,6917.792,95.436,540.55,538.764,0.0
53552.0,STARLINK-4495,PAYLOAD,2024-08-10 21:47:03,15.08872441,0.0001418,53.2158,128.908,125.0891,235.0234,0.0029065,0.00046314,0.0,0 STARLINK-4495,1 53552U 22101AB  24223.90768050  .00046314  00000-0  29065-2 0  9996,2 53552  53.2158 128.9080 0001418 125.0891 235.0234 15.08872441110038,6917.781,95.436,540.627,538.665,0.0
53552.0,STARLINK-4495,PAYLOAD,2024-08-11 00:57:49,15.08872964,0.0001323,53.2157,128.3132,83.0339,277.0803,0.0026119,0.00041563,0.0,0 STARLINK-4495,1 53552U 22101AB  24224.04016078  .00041563  00000-0  26119-2 0  9996,2 53552  53.2157 128.3132 0001323  83.0339 277.0803 15.08872964109401,6917.78,95.435,540.56,538.729,0.0
53552.0,STARLINK-4495,PAYLOAD,2024-08-11 10:30:08,15.08849419,0.0002129,53.2155,126.5261,74.0926,286.03,0.0013035,0.00020524,0.0,0 STARLINK-4495,1 53552U 22101AB  24224.43760199  .00020524  00000-0  13035-2 0  9996,2 53552  53.2155 126.5261 0002129  74.0926 286.0300 15.08849419109466,6917.852,95.437,541.189,538.244,0.0
53552.0,STARLINK-4495,PAYLOAD,2024-08-11 21:37:50,15.08846615,0.0001247,53.2159,124.4471,68.0918,292.0206,0.001729,0.00027341,0.0,0 STARLINK-4495,1 53552U 22101AB  24224.90128322  .00027341  00000-0  17290-2 0  9995,2 53552  53.2159 124.4471 0001247  68.0918 292.0206 15.08846615110182,6917.86,95.437,540.588,538.863,0.0
53552.0,STARLINK-4495,PAYLOAD,2024-08-12 03:59:23,15.08876979,0.0001473,53.2147,123.2576,69.3377,290.7773,0.0030488,0.00048618,0.0,0 STARLINK-4495,1 53552U 22101AB  24225.16624109  .00048618  00000-0  30488-2 0  9992,2 53552  53.2147 123.2576 0001473  69.3377 290.7773 15.08876979109577,6917.767,95.435,540.651,538.613,0.0
53552.0,STARLINK-4495,PAYLOAD,2024-08-12 10:20:55,15.08849776,0.0001353,53.2146,122.0643,89.3405,270.7742,0.0023655,0.0003757,0.0,0 STARLINK-4495,1 53552U 22101AB  24225.43120226  .00037570  00000-0  23655-2 0  9996,2 53552  53.2146 122.0643 0001353  89.3405 270.7742 15.08849776109613,6917.851,95.437,540.651,538.78,0.0
53552.0,STARLINK-4495,PAYLOAD,2024-08-12 23:04:00,15.08886083,0.0001433,53.213,119.6863,90.1035,270.0121,0.0026667,0.00042462,0.0,0 STARLINK-4495,1 53552U 22101AB  24225.96111459  .00042462  00000-0  26667-2 0  9994,2 53552  53.2130 119.6863 0001433  90.1035 270.0121 15.08886083110348,6917.74,95.435,540.596,538.613,0.0
53552.0,STARLINK-4495,PAYLOAD,2024-08-13 02:14:46,15.08919245,0.0001389,53.2145,119.0942,89.5679,270.5473,0.0044001,0.00070595,0.0,0 STARLINK-4495,1 53552U 22101AB  24226.09358828  .00070595  00000-0  44001-2 0  9992,2 53552  53.2145 119.0942 0001389  89.5679 270.5473 15.08919245109713,6917.638,95.433,540.464,538.542,0.0
53552.0,STARLINK-4495,PAYLOAD,2024-08-13 10:11:42,15.08842361,0.0002458,53.2145,117.6074,80.1293,279.9976,-0.00034932,-5.844e-05,0.0,0 STARLINK-4495,1 53552U 22101AB  24226.42479694 -.00005844  00000-0 -34932-3 0  9994,2 53552  53.2145 117.6074 0002458  80.1293 279.9976 15.08842361109760,6917.873,95.437,541.439,538.038,0.0
53552.0,STARLINK-4495,PAYLOAD,2024-08-13 22:54:48,15.08810728,0.0001507,53.2147,115.2289,86.7853,273.3312,0.0015578,0.00024571,0.0,0 STARLINK-4495,1 53552U 22101AB  24226.95473024  .00024571  00000-0  15578-2 0  9993,2 53552  53.2147 115.2289 0001507  86.7853 273.3312 15.08810728110498,6917.97,95.439,540.877,538.792,0.0
53552.0,STARLINK-4495,PAYLOAD,2024-08-14 10:02:31,15.08834116,0.0001683,53.2144,113.1476,82.7392,277.3792,0.0024414,0.00038775,0.0,0 STARLINK-4495,1 53552U 22101AB  24227.41841768  .00038775  00000-0  24414-2 0  9999,2 53552  53.2144 113.1476 0001683  82.7392 277.3792 15.08834116110560,6917.898,95.438,540.928,538.599,0.0
53552.0,STARLINK-4495,PAYLOAD,2024-08-14 22:45:36,15.08859066,0.0001702,53.215,110.769,80.9774,279.1411,0.0017902,0.00028333,0.0,0 STARLINK-4495,1 53552U 22101AB  24227.94833601  .00028333  00000-0  17902-2 0  9997,2 53552  53.2150 110.7690 0001702  80.9774 279.1411 15.08859066110642,6917.822,95.436,540.865,538.51,0.0
53552.0,STARLINK-4495,PAYLOAD,2024-08-15 09:53:17,15.08869319,0.000142,53.2154,108.6873,72.7333,287.3815,0.0016311,0.00025787,0.0,0 STARLINK-4495,1 53552U 22101AB  24228.41201093  .00025787  00000-0  16311-2 0  9997,2 53552  53.2154 108.6873 0001420  72.7333 287.3815 15.08869319110711,6917.791,95.436,540.638,538.673,0.0
53552.0,STARLINK-4495,PAYLOAD,2024-08-15 22:36:23,15.08844573,0.000176,53.2164,106.3088,86.6129,273.5064,0.0004778,7.325e-05,0.0,0 STARLINK-4495,1 53552U 22101AB  24228.94193351  .00007325  00000-0  47780-3 0  9995,2 53552  53.2164 106.3088 0001760  86.6129 273.5064 15.08844573110795,6917.866,95.437,540.949,538.514,0.0
53552.0,STARLINK-4495,PAYLOAD,2024-08-17 01:37:56,15.08856611,0.0001857,53.2163,101.2533,77.4955,282.6245,0.0011184,0.00017564,0.0,0 STARLINK-4495,1 53552U 22101AB  24230.06801593  .00017564  00000-0  11184-2 0  9999,2 53552  53.2163 101.2533 0001857  77.4955 282.6245 15.08856611110311,6917.83,95.437,540.979,538.41,0.0
53552.0,STARLINK-4495,PAYLOAD,2024-08-17 15:56:24,15.0884446,0.0002603,53.2162,98.5708,108.6724,251.4551,0.00041422,6.311e-05,0.0,0 STARLINK-4495,1 53552U 22101AB  24230.66417640  .00006311  00000-0  41422-3 0  9998,2 53552  53.2162  98.5708 0002603 108.6724 251.4551 15.08844460110406,6917.867,95.437,541.532,537.931,0.0
53552.0,STARLINK-4495,PAYLOAD,2024-08-18 20:33:20,15.08850358,0.000131,53.2167,93.221,94.0879,266.0263,0.0003561,5.386e-05,0.0,0 STARLINK-4495,1 53552U 22101AB  24231.85649069  .00005386  00000-0  35610-3 0  9995,2 53552  53.2167  93.2210 0001310  94.0879 266.0263 15.08850358110588,6917.849,95.437,540.62,538.807,0.0
53552.0,STARLINK-4495,PAYLOAD,2024-08-19 07:41:03,15.08833801,0.0001508,53.2159,91.1394,88.3327,271.7838,-3.1371e-05,-7.87e-06,0.0,0 STARLINK-4495,1 53552U 22101AB  24232.32017753 -.00000787  00000-0 -31371-4 0  9990,2 53552  53.2159  91.1394 0001508  88.3327 271.7838 15.08833801110655,6917.899,95.438,540.808,538.721,0.0
53552.0,STARLINK-4495,PAYLOAD,2024-08-19 23:34:54,15.08849427,0.0001649,53.2155,88.1668,86.2869,273.8311,0.00034946,5.279e-05,0.0,0 STARLINK-4495,1 53552U 22101AB  24232.98257269  .00005279  00000-0  34946-3 0  9999,2 53552  53.2155  88.1668 0001649  86.2869 273.8311 15.08849427110756,6917.852,95.437,540.857,538.576,0.0
53552.0,STARLINK-4495,PAYLOAD,2024-08-20 07:31:49,15.08849105,0.0001857,53.2154,86.6826,83.723,276.3974,0.00038952,5.918e-05,0.0,0 STARLINK-4495,1 53552U 22101AB  24233.31377302  .00005918  00000-0  38952-3 0  9999,2 53552  53.2154  86.6826 0001857  83.7230 276.3974 15.08849105111453,6917.853,95.437,541.002,538.433,0.0
53552.0,STARLINK-4495,PAYLOAD,2024-08-20 20:14:55,15.0884079,0.0001778,53.2171,84.3019,80.7819,279.3374,4.4827e-05,4.25e-06,0.0,0 STARLINK-4495,1 53552U 22101AB  24233.84369482  .00000425  00000-0  44827-4 0  9994,2 53552  53.2171  84.3019 0001778  80.7819 279.3374 15.08840790110887,6917.878,95.438,540.973,538.513,0.0
53552.0,STARLINK-4495,PAYLOAD,2024-08-20 23:25:41,15.08844519,0.0001489,53.2152,83.7052,86.6097,273.5065,0.00014854,2.077e-05,0.0,0 STARLINK-4495,1 53552U 22101AB  24233.97617248  .00002077  00000-0  14854-3 0  9995,2 53552  53.2152  83.7052 0001489  86.6097 273.5065 15.08844519111559,6917.867,95.437,540.762,538.702,0.0
53552.0,STARLINK-4495,PAYLOAD,2024-08-21 20:05:42,15.08845235,0.0001654,53.2165,79.8385,86.121,273.9971,-2.5905e-05,-7e-06,0.0,0 STARLINK-4495,1 53552U 22101AB  24234.83729443 -.00000700  00000-0 -25905-4 0  9995,2 53552  53.2165  79.8385 0001654  86.1210 273.9971 15.08845235111684,6917.864,95.437,540.874,538.585,0.0
